CZ-2D R/B               
1 28738U 05024B   26189.62441742  .00050849  00000+0  38743-3 0  9998
2 28738  97.3477 210.1597 0001260 219.5546 140.5626 15.72109039158705
ALOS (DAICHI)           
1 28931U 06002A   26189.87123325  .00000727  00000+0  12919-3 0  9998
2 28931  98.1334 145.3726 0000782  81.1093 279.0202 14.70093988 91281
H-2A R/B                
1 28932U 06002B   26189.93617283  .00005483  00000+0  26202-3 0  9991
2 28932  98.2584 347.7399 0050424 187.2932 172.7573 15.18377997112824
RESURS-DK 1             
1 29228U 06021A   26190.24541127  .00001215  00000+0  74141-4 0  9995
2 29228  69.9328 282.4503 0006781 277.8398  82.1999 15.13306588105916
CZ-4B R/B               
1 29507U 06046C   26190.07373642  .00002944  00000+0  14663-3 0  9990
2 29507  97.5443 234.6133 0031985 203.5221 156.4552 15.17949695 78458
CZ-2C R/B               
1 31114U 07010B   26190.25116606  .00000044  00000+0  39518-4 0  9990
2 31114  98.4114 297.5248 0057908 301.3979  58.1542 14.20280908996976
COSMO-SKYMED 1          
1 31598U 07023A   26190.32414223  .00001551  00000+0  13933-3 0  9990
2 31598  97.8845  22.3672 0001049  93.4329 266.7012 14.97202632 33102
COSMOS 2428             
1 31792U 07029A   26190.30281486  .00000160  00000+0  11160-3 0  9998
2 31792  70.9381 308.0425 0007172  92.6802 267.5140 14.12931440981279
SL-16 R/B               
1 31793U 07029B   26190.23247236 -.00000120  00000+0 -37305-4 0  9994
2 31793  70.9752 276.8873 0002127 257.7054 132.9035 14.14850784982563
KORONAS-FOTON           
1 33504U 09003A   26190.27995380  .00010486  00000+0  21210-3 0  9995
2 33504  82.4295 149.2055 0012512  80.4717 279.7945 15.46203430964517
CZ-2C R/B               
1 37731U 11030B   26189.85507238  .00000807  00000+0  10754-3 0  9994
2 37731  97.8665 144.8521 0051195 317.3058  95.9852 14.81523817808034
H-2A R/B                
1 38341U 12025E   26190.03180230  .00001473  00000+0  13594-3 0  9993
2 38341  98.4845 166.9811 0042140 275.9423  83.6994 14.95827533766357
SHIJIAN-16 (SJ-16)      
1 39358U 13057A   26190.35807965  .00001167  00000+0  11577-3 0  9993
2 39358  74.9735 314.6902 0015967 178.8067 181.3162 14.92660374689653
SL-4 R/B                
1 39679U 14021B   26190.16083215  .00008482  00000+0  17579-3 0  9999
2 39679  51.6056 103.0868 0090064 186.3192 173.6665 15.42400194675006
ALOS-2                  
1 39766U 14029A   26190.25511495  .00000733  00000+0  10498-3 0  9994
2 39766  97.9221 287.1037 0001626  92.9652 267.1746 14.79473760654847
YAOGAN-29               
1 41038U 15069A   26190.30720941  .00000714  00000+0  94298-4 0  9998
2 41038  98.0024 218.9741 0001189  21.6016 338.5248 14.83104568573905
ASTRO-H (HITOMI)        
1 41337U 16012A   26190.30265058  .00001901  00000+0  10650-3 0  9990
2 41337  30.9998 291.3509 0009544 115.8775 244.2848 15.10617364570630
HXMT (HUIYAN)           
1 42758U 17034A   26190.10325877  .00003187  00000+0  16053-3 0  9998
2 42758  43.0146  60.9912 0032719 283.6438  76.0768 15.18652205500991
SAOCOM 1A               
1 43641U 18076A   26190.27947274 -.00000581  00000+0 -66501-4 0  9997
2 43641  97.8893  16.7069 0001477  84.2523 275.8859 14.82144759419379
H-2A R/B                
1 43682U 18084L   26189.75190271  .00015368  00000+0  31445-3 0  9994
2 43682  98.8546  73.3657 0020844 324.4335  35.5519 15.46022957424456
SAOCOM 1B               
1 46265U 20059A   26190.31071904 -.00000569  00000+0 -64873-4 0  9995
2 46265  97.8897  15.8337 0001579  80.4913 279.6479 14.82153173316769
CSS (TIANHE)            
1 48274U 21035A   26190.31778095  .00001103  00000+0  18566-4 0  9998
2 48274  41.4688 187.4551 0002653 281.7622  78.2918 15.58017197296627
COSMOS 2550             
1 48865U 21056A   26190.32527836  .00000777  00000+0  29465-4 0  9999
2 48865  67.1432  32.9402 0008438 271.5231  88.4957 15.33787977282112
CZ-2C R/B               
1 52794U 22058K   26189.98387498  .00031975  00000+0  33492-3 0  9994
2 52794  50.1859  49.9701 0030718 356.8972   3.1808 15.63480368229058
CZ-2C R/B               
1 54039U 22132E   26189.97441786  .00051033  00000+0  35232-3 0  9992
2 54039  97.2895 198.0134 0010713   9.4182 350.7282 15.74351437209373
GSLV R/B                
1 54149U 22138AN  26190.23907571  .00002182  00000+0  18439-3 0  9991
2 54149  87.3814 125.5791 0024040  71.8269 288.5577 14.97366438202118
XRISM                   
1 57800U 23137A   26190.23158471  .00002527  00000+0  13552-3 0  9999
2 57800  31.0009 216.7875 0007826 186.6493 173.4043 15.12644869156203
ACS3                    
1 59588U 24077B   26190.23072331  .00024318  00000+0  16934-1 0  9995
2 59588  97.1733 104.1292 0116498  43.6245 317.4061 13.95365546111113
SPACEMOBILE-003         
1 61045U 24163A   26190.16707285  .00000490  00000+0  36599-4 0  9994
2 61045  52.9653 208.3642 0005455 177.5789 182.5233 15.20787211101118
SPACEMOBILE-005         
1 61046U 24163B   26190.01909803  .00004173  00000+0  20157-3 0  9993
2 61046  52.9781 208.9865 0009078 177.0734 183.0315 15.20760745101080
SPACEMOBILE-001         
1 61047U 24163C   26189.49183679  .00000562  00000+0  39835-4 0  9991
2 61047  52.9747 211.1260 0007521 173.6655 186.4436 15.20812105101004
SPACEMOBILE-002         
1 61048U 24163D   26190.26443580  .00006272  00000+0  29470-3 0  9996
2 61048  52.9763 207.6126 0006640 175.9238 184.1811 15.20861316101120
SPACEMOBILE-004         
1 61049U 24163E   26189.98408977  .00011730  00000+0  53864-3 0  9994
2 61049  52.9658 208.6863 0007038 205.0590 155.0064 15.20818344101086
CZ-8A R/B               
1 66004U 25231K   26190.27210945 -.00000032  00000+0  47124-4 0  9994
2 66004  50.0053 305.3581 0116520 301.7613  57.1992 14.30161100 38104
SZ-21 MODULE            
1 66515U 25246C   26189.99581375  .00039693  00000+0  22393-3 0  9996
2 66515  41.4703 171.3042 0006793 177.6183 182.4695 15.78344685 37185
SPACEMOBILE-006         
1 67232U 25309A   26189.16910173  .00000190  00000+0  24444-4 0  9994
2 67232  52.9947 235.5229 0010630 192.2291 167.8446 15.18644437 29787
SPACEMOBILE-008         
1 69589U 26139A   26190.27299870  .00000479  00000+0  43935-4 0  9997
2 69589  52.9939 162.2948 0004746  42.3763 317.7594 15.12796930  3321
SPACEMOBILE-009         
1 69590U 26139B   26189.94419122  .00000456  00000+0  42786-4 0  9993
2 69590  52.9929 163.7993 0004980  36.9056 323.2277 15.12689610  3272
SPACEMOBILE-010         
1 69591U 26139C   26189.41798456  .00000482  00000+0  44398-4 0  9996
2 69591  52.9933 166.2159 0004820  26.6938 333.4300 15.12519992  3206
